STARLINK-11290 [DTC]    
1 61000U 24158L   26078.42614403  .00000673  00000+0  10409-4 0  9997
2 61000  53.1588 233.2783 0000955  70.1645 289.9476 15.69711404 89188
STARLINK-11274 [DTC]    
1 61001U 24158M   26078.79835316 -.00000874  00000+0 -23551-5 0  9994
2 61001  53.1623 231.3312 0001314  76.2743 283.8421 15.69711270 89175
STARLINK-11288 [DTC]    
1 61002U 24158N   26078.72977354  .00001494  00000+0  17181-4 0  9995
2 61002  53.1614 231.6149 0000449 119.8306 240.2757 15.69702101 89165
STARLINK-32279          
1 61003U 24158P   26079.09477924  .00005030  00000+0  18172-3 0  9995
2 61003  53.1622  17.2512 0001511  75.9346 284.1822 15.30223065 87246
STARLINK-32336          
1 61004U 24158Q   26079.09056979  .00001525  00000+0  63607-4 0  9998
2 61004  53.1617  17.2236 0001165  75.8656 284.2475 15.30199126 87247
STARLINK-32284          
1 61005U 24158R   26079.09798872 -.00002856  00000+0 -84404-4 0  9992
2 61005  53.1620  17.2711 0001915  53.5553 306.5624 15.30165463 87175
STARLINK-32282          
1 61006U 24158S   26079.14639762  .00000220  00000+0  19564-4 0  9997
2 61006  53.1627  16.8598 0001257  94.0093 266.1052 15.30190277 87255
STARLINK-32360          
1 61007U 24158T   26079.15471006  .00005730  00000+0  20521-3 0  9999
2 61007  53.1615   1.6178 0001220  97.8375 262.2764 15.30235910 87399
STARLINK-32340          
1 61008U 24158U   26079.10850681  .00001454  00000+0  61197-4 0  9999
2 61008  53.1618  17.2598 0001108  83.9881 276.1246 15.30195703 87175
STARLINK-32347          
1 61010U 24158W   26079.08424785 -.00000133  00000+0  76517-5 0  9998
2 61010  53.1621  17.1799 0001312  92.0099 268.1052 15.30189601 87179
STARLINK-11286 [DTC]    
1 61050U 24164A   26078.90855338  .00000643  00000+0  10168-4 0  9995
2 61050  53.1609 260.9130 0001134  77.6314 282.4831 15.69712570 87024
STARLINK-11252 [DTC]    
1 61051U 24164B   26078.90368780 -.00003743  00000+0 -26094-4 0  9997
2 61051  53.1618 260.8806 0000916  13.7741 346.3302 15.69673632 87024
STARLINK-11230 [DTC]    
1 61053U 24164D   26078.89384914  .00000378  00000+0  79695-5 0  9999
2 61053  53.1597 260.8114 0000443  94.6129 265.4940 15.69709916 87021
STARLINK-11294 [DTC]    
1 61054U 24164E   26078.76160367  .00000439  00000+0  84763-5 0  9990
2 61054  53.1585 261.4066 0000559  70.9652 289.1426 15.69713376 87003
STARLINK-11268 [DTC]    
1 61055U 24164F   26079.20238100  .00000178  00000+0  63257-5 0  9997
2 61055  53.1600 259.1751 0001059  50.9750 309.1362 15.69711653 87075
STARLINK-11156 [DTC]    
1 61056U 24164G   26078.79070858  .00024655  00000+0  17513-3 0  9993
2 61056  53.1552 260.8623 0002342 279.4560  80.6195 15.73785511 87010
