[{"OBJECT_NAME":"STARLINK-11290 [DTC]","OBJECT_ID":"2024-158L","EPOCH":"2026-03-19T10:13:38.844192","MEAN_MOTION":15.69711404,"ECCENTRICITY":9.555e-5,"INCLINATION":53.1588,"RA_OF_ASC_NODE":233.2783,"ARG_OF_PERICENTER":70.1645,"MEAN_ANOMALY":289.9476,"EPHEMERIS_TYPE":0,"CLASSIFICATION_TYPE":"U","NORAD_CAT_ID":61000,"ELEMENT_SET_NO":999,"REV_AT_EPOCH":8918,"BSTAR":1.0408956e-5,"MEAN_MOTION_DOT":6.73e-6,"MEAN_MOTION_DDOT":0},{"OBJECT_NAME":"STARLINK-11274 [DTC]","OBJECT_ID":"2024-158M","EPOCH":"2026-03-19T19:09:37.713024","MEAN_MOTION":15.6971127,"ECCENTRICITY":0.00013141,"INCLINATION":53.1623,"RA_OF_ASC_NODE":231.3312,"ARG_OF_PERICENTER":76.2743,"MEAN_ANOMALY":283.8421,"EPHEMERIS_TYPE":0,"CLASSIFICATION_TYPE":"U","NORAD_CAT_ID":61001,"ELEMENT_SET_NO":999,"REV_AT_EPOCH":8917,"BSTAR":-2.355058e-6,"MEAN_MOTION_DOT":-8.74e-6,"MEAN_MOTION_DDOT":0},{"OBJECT_NAME":"STARLINK-11288 [DTC]","OBJECT_ID":"2024-158N","EPOCH":"2026-03-19T17:30:52.433856","MEAN_MOTION":15.69702101,"ECCENTRICITY":4.495e-5,"INCLINATION":53.1614,"RA_OF_ASC_NODE":231.6149,"ARG_OF_PERICENTER":119.8306,"MEAN_ANOMALY":240.2757,"EPHEMERIS_TYPE":0,"CLASSIFICATION_TYPE":"U","NORAD_CAT_ID":61002,"ELEMENT_SET_NO":999,"REV_AT_EPOCH":8916,"BSTAR":1.7180648e-5,"MEAN_MOTION_DOT":1.494e-5,"MEAN_MOTION_DDOT":0},{"OBJECT_NAME":"STARLINK-32279","OBJECT_ID":"2024-158P","EPOCH":"2026-03-20T02:16:28.926336","MEAN_MOTION":15.30223065,"ECCENTRICITY":0.0001511,"INCLINATION":53.1622,"RA_OF_ASC_NODE":17.2512,"ARG_OF_PERICENTER":75.9346,"MEAN_ANOMALY":284.1822,"EPHEMERIS_TYPE":0,"CLASSIFICATION_TYPE":"U","NORAD_CAT_ID":61003,"ELEMENT_SET_NO":999,"REV_AT_EPOCH":8724,"BSTAR":0.00018172,"MEAN_MOTION_DOT":5.03e-5,"MEAN_MOTION_DDOT":0},{"OBJECT_NAME":"STARLINK-32336","OBJECT_ID":"2024-158Q","EPOCH":"2026-03-20T02:10:25.229856","MEAN_MOTION":15.30199126,"ECCENTRICITY":0.0001165,"INCLINATION":53.1617,"RA_OF_ASC_NODE":17.2236,"ARG_OF_PERICENTER":75.8656,"MEAN_ANOMALY":284.2475,"EPHEMERIS_TYPE":0,"CLASSIFICATION_TYPE":"U","NORAD_CAT_ID":61004,"ELEMENT_SET_NO":999,"REV_AT_EPOCH":8724,"BSTAR":6.3607e-5,"MEAN_MOTION_DOT":1.525e-5,"MEAN_MOTION_DDOT":0},{"OBJECT_NAME":"STARLINK-32284","OBJECT_ID":"2024-158R","EPOCH":"2026-03-20T02:21:06.225408","MEAN_MOTION":15.30165463,"ECCENTRICITY":0.0001915,"INCLINATION":53.162,"RA_OF_ASC_NODE":17.2711,"ARG_OF_PERICENTER":53.5553,"MEAN_ANOMALY":306.5624,"EPHEMERIS_TYPE":0,"CLASSIFICATION_TYPE":"U","NORAD_CAT_ID":61005,"ELEMENT_SET_NO":999,"REV_AT_EPOCH":8717,"BSTAR":-8.4404e-5,"MEAN_MOTION_DOT":-2.856e-5,"MEAN_MOTION_DDOT":0},{"OBJECT_NAME":"STARLINK-32282","OBJECT_ID":"2024-158S","EPOCH":"2026-03-20T03:30:48.754368","MEAN_MOTION":15.30190277,"ECCENTRICITY":0.0001257,"INCLINATION":53.1627,"RA_OF_ASC_NODE":16.8598,"ARG_OF_PERICENTER":94.0093,"MEAN_ANOMALY":266.1052,"EPHEMERIS_TYPE":0,"CLASSIFICATION_TYPE":"U","NORAD_CAT_ID":61006,"ELEMENT_SET_NO":999,"REV_AT_EPOCH":8725,"BSTAR":1.9564e-5,"MEAN_MOTION_DOT":2.2e-6,"MEAN_MOTION_DDOT":0},{"OBJECT_NAME":"STARLINK-32360","OBJECT_ID":"2024-158T","EPOCH":"2026-03-20T03:42:46.949184","MEAN_MOTION":15.3023591,"ECCENTRICITY":0.000122,"INCLINATION":53.1615,"RA_OF_ASC_NODE":1.6178,"ARG_OF_PERICENTER":97.8375,"MEAN_ANOMALY":262.2764,"EPHEMERIS_TYPE":0,"CLASSIFICATION_TYPE":"U","NORAD_CAT_ID":61007,"ELEMENT_SET_NO":999,"REV_AT_EPOCH":8739,"BSTAR":0.00020521,"MEAN_MOTION_DOT":5.73e-5,"MEAN_MOTION_DDOT":0},{"OBJECT_NAME":"STARLINK-32340","OBJECT_ID":"2024-158U","EPOCH":"2026-03-20T02:36:14.988384","MEAN_MOTION":15.30195703,"ECCENTRICITY":0.0001108,"INCLINATION":53.1618,"RA_OF_ASC_NODE":17.2598,"ARG_OF_PERICENTER":83.9881,"MEAN_ANOMALY":276.1246,"EPHEMERIS_TYPE":0,"CLASSIFICATION_TYPE":"U","NORAD_CAT_ID":61008,"ELEMENT_SET_NO":999,"REV_AT_EPOCH":8717,"BSTAR":6.1197e-5,"MEAN_MOTION_DOT":1.454e-5,"MEAN_MOTION_DDOT":0},{"OBJECT_NAME":"STARLINK-32347","OBJECT_ID":"2024-158W","EPOCH":"2026-03-20T02:01:19.014240","MEAN_MOTION":15.30189601,"ECCENTRICITY":0.0001312,"INCLINATION":53.1621,"RA_OF_ASC_NODE":17.1799,"ARG_OF_PERICENTER":92.0099,"MEAN_ANOMALY":268.1052,"EPHEMERIS_TYPE":0,"CLASSIFICATION_TYPE":"U","NORAD_CAT_ID":61010,"ELEMENT_SET_NO":999,"REV_AT_EPOCH":8717,"BSTAR":7.6517e-6,"MEAN_MOTION_DOT":-1.33e-6,"MEAN_MOTION_DDOT":0},{"OBJECT_NAME":"STARLINK-11286 [DTC]","OBJECT_ID":"2024-164A","EPOCH":"2026-03-19T21:48:19.012032","MEAN_MOTION":15.6971257,"ECCENTRICITY":0.0001134,"INCLINATION":53.1609,"RA_OF_ASC_NODE":260.913,"ARG_OF_PERICENTER":77.6314,"MEAN_ANOMALY":282.4831,"EPHEMERIS_TYPE":0,"CLASSIFICATION_TYPE":"U","NORAD_CAT_ID":61050,"ELEMENT_SET_NO":999,"REV_AT_EPOCH":8702,"BSTAR":1.0168e-5,"MEAN_MOTION_DOT":6.43e-6,"MEAN_MOTION_DDOT":0},{"OBJECT_NAME":"STARLINK-11252 [DTC]","OBJECT_ID":"2024-164B","EPOCH":"2026-03-19T21:41:18.625920","MEAN_MOTION":15.69673632,"ECCENTRICITY":9.16e-5,"INCLINATION":53.1618,"RA_OF_ASC_NODE":260.8806,"ARG_OF_PERICENTER":13.7741,"MEAN_ANOMALY":346.3302,"EPHEMERIS_TYPE":0,"CLASSIFICATION_TYPE":"U","NORAD_CAT_ID":61051,"ELEMENT_SET_NO":999,"REV_AT_EPOCH":8702,"BSTAR":-2.6094e-5,"MEAN_MOTION_DOT":-3.743e-5,"MEAN_MOTION_DDOT":0},{"OBJECT_NAME":"STARLINK-11230 [DTC]","OBJECT_ID":"2024-164D","EPOCH":"2026-03-19T21:27:08.565696","MEAN_MOTION":15.69709916,"ECCENTRICITY":4.43e-5,"INCLINATION":53.1597,"RA_OF_ASC_NODE":260.8114,"ARG_OF_PERICENTER":94.6129,"MEAN_ANOMALY":265.494,"EPHEMERIS_TYPE":0,"CLASSIFICATION_TYPE":"U","NORAD_CAT_ID":61053,"ELEMENT_SET_NO":999,"REV_AT_EPOCH":8702,"BSTAR":7.9695e-6,"MEAN_MOTION_DOT":3.78e-6,"MEAN_MOTION_DDOT":0},{"OBJECT_NAME":"STARLINK-11294 [DTC]","OBJECT_ID":"2024-164E","EPOCH":"2026-03-19T18:16:42.557088","MEAN_MOTION":15.69713376,"ECCENTRICITY":5.592e-5,"INCLINATION":53.1585,"RA_OF_ASC_NODE":261.4066,"ARG_OF_PERICENTER":70.9652,"MEAN_ANOMALY":289.1426,"EPHEMERIS_TYPE":0,"CLASSIFICATION_TYPE":"U","NORAD_CAT_ID":61054,"ELEMENT_SET_NO":999,"REV_AT_EPOCH":8700,"BSTAR":8.476288e-6,"MEAN_MOTION_DOT":4.39e-6,"MEAN_MOTION_DDOT":0},{"OBJECT_NAME":"STARLINK-11268 [DTC]","OBJECT_ID":"2024-164F","EPOCH":"2026-03-20T04:51:25.718400","MEAN_MOTION":15.69711653,"ECCENTRICITY":0.0001059,"INCLINATION":53.16,"RA_OF_ASC_NODE":259.1751,"ARG_OF_PERICENTER":50.975,"MEAN_ANOMALY":309.1362,"EPHEMERIS_TYPE":0,"CLASSIFICATION_TYPE":"U","NORAD_CAT_ID":61055,"ELEMENT_SET_NO":999,"REV_AT_EPOCH":8707,"BSTAR":6.3257e-6,"MEAN_MOTION_DOT":1.78e-6,"MEAN_MOTION_DDOT":0},{"OBJECT_NAME":"STARLINK-11156 [DTC]","OBJECT_ID":"2024-164G","EPOCH":"2026-03-19T18:58:37.221312","MEAN_MOTION":15.73785511,"ECCENTRICITY":0.00023423,"INCLINATION":53.1552,"RA_OF_ASC_NODE":260.8623,"ARG_OF_PERICENTER":279.456,"MEAN_ANOMALY":80.6195,"EPHEMERIS_TYPE":0,"CLASSIFICATION_TYPE":"U","NORAD_CAT_ID":61056,"ELEMENT_SET_NO":999,"REV_AT_EPOCH":8701,"BSTAR":0.00017513002,"MEAN_MOTION_DOT":0.00024655,"MEAN_MOTION_DDOT":0}]
